start=new Date('2021-09-09T00:00:00.000Z').valueOf();
sats=[{"REV_AT_EPOCH":"3466","SEMIMAJOR_AXIS":"6901.169","CLASSIFICATION_TYPE":"U","TLE_LINE2":"2 47417  97.4888 312.0071 0002695 186.5153 173.6044 15.14324029 34669","MEAN_MOTION_DOT":"0.00000771","SITE":"AFETR","MEAN_MOTION_DDOT":"0.0000000000000","OBJECT_TYPE":"PAYLOAD","PERIAPSIS":"521.174","COUNTRY_CODE":"US","APOAPSIS":"524.893","NORAD_CAT_ID":"47417","DECAY_DATE":null,"MEAN_ELEMENT_THEORY":"SGP4","OBJECT_ID":"2021-006E","GP_ID":"184349263","ECCENTRICITY":"0.00026950","MEAN_MOTION":"15.14324029","MEAN_ANOMALY":"173.6044","LAUNCH_DATE":"2021-01-24","FILE":"3111252","ARG_OF_PERICENTER":"186.5153","CENTER_NAME":"EARTH","RA_OF_ASC_NODE":"312.0071","PERIOD":"95.092","ELEMENT_SET_NO":"999","INCLINATION":"97.4888","REF_FRAME":"TEME","TIME_SYSTEM":"UTC","EPOCH":"2021-09-08T14:49:46.509888","OBJECT_NAME":"STARLINK-2203","EPHEMERIS_TYPE":"0","BSTAR":"0.00004562400000","TLE_LINE1":"1 47417U 21006E   21251.61789942  .00000771  00000-0  45624-4 0  9999","RCS_SIZE":"LARGE"},{"TLE_LINE2":"2 47418  97.4852 309.0881 0001177 311.2813  48.8311 15.01264733 34436","MEAN_MOTION_DOT":"0.00001607","SITE":"AFETR","MEAN_MOTION_DDOT":"0.0000000000000","OBJECT_TYPE":"PAYLOAD","PERIAPSIS":"562.180","REV_AT_EPOCH":"3443","CLASSIFICATION_TYPE":"U","SEMIMAJOR_AXIS":"6941.132","MEAN_MOTION":"15.01264733","MEAN_ANOMALY":"48.8311","LAUNCH_DATE":"2021-01-24","COUNTRY_CODE":"US","NORAD_CAT_ID":"47418","APOAPSIS":"563.814","MEAN_ELEMENT_THEORY":"SGP4","DECAY_DATE":null,"OBJECT_ID":"2021-006F","GP_ID":"184320211","ECCENTRICITY":"0.00011770","PERIOD":"95.919","ELEMENT_SET_NO":"999","INCLINATION":"97.4852","REF_FRAME":"TEME","FILE":"3110975","ARG_OF_PERICENTER":"311.2813","CENTER_NAME":"EARTH","RA_OF_ASC_NODE":"309.0881","EPHEMERIS_TYPE":"0","TLE_LINE1":"1 47418U 21006F   21251.11980949  .00001607  00000-0  12950-3 0  9999","BSTAR":"0.00012950000000","RCS_SIZE":"LARGE","TIME_SYSTEM":"UTC","EPOCH":"2021-09-08T02:52:31.539936","OBJECT_NAME":"STARLINK-2204"},{"ELEMENT_SET_NO":"999","PERIOD":"95.092","INCLINATION":"97.4890","REF_FRAME":"TEME","ARG_OF_PERICENTER":"197.0491","FILE":"3110975","CENTER_NAME":"EARTH","RA_OF_ASC_NODE":"311.9424","EPHEMERIS_TYPE":"0","BSTAR":"-0.00000101430000","TLE_LINE1":"1 47419U 21006G   21251.55228501 -.00000083  00000-0 -10143-5 0  9990","RCS_SIZE":"LARGE","TIME_SYSTEM":"UTC","OBJECT_NAME":"STARLINK-2205","EPOCH":"2021-09-08T13:15:17.424864","MEAN_MOTION_DDOT":"0.0000000000000","TLE_LINE2":"2 47419  97.4890 311.9424 0002233 197.0491 163.0666 15.14316825 34651","MEAN_MOTION_DOT":"-0.00000083","SITE":"AFETR","OBJECT_TYPE":"PAYLOAD","PERIAPSIS":"521.514","SEMIMAJOR_AXIS":"6901.190","CLASSIFICATION_TYPE":"U","REV_AT_EPOCH":"3465","MEAN_MOTION":"15.14316825","MEAN_ANOMALY":"163.0666","LAUNCH_DATE":"2021-01-24","COUNTRY_CODE":"US","DECAY_DATE":null,"MEAN_ELEMENT_THEORY":"SGP4","APOAPSIS":"524.596","NORAD_CAT_ID":"47419","OBJECT_ID":"2021-006G","ECCENTRICITY":"0.00022330","GP_ID":"184318959"},{"REV_AT_EPOCH":"3466","SEMIMAJOR_AXIS":"6901.179","CLASSIFICATION_TYPE":"U","SITE":"AFETR","TLE_LINE2":"2 47420  97.4886 312.0049 0002443 195.2046 164.9112 15.14320647 34666","MEAN_MOTION_DOT":"-0.00000178","MEAN_MOTION_DDOT":"0.0000000000000","OBJECT_TYPE":"PAYLOAD","PERIAPSIS":"521.358","COUNTRY_CODE":"US","APOAPSIS":"524.730","NORAD_CAT_ID":"47420","MEAN_ELEMENT_THEORY":"SGP4","DECAY_DATE":null,"OBJECT_ID":"2021-006H","GP_ID":"184349013","ECCENTRICITY":"0.00024430","MEAN_MOTION":"15.14320647","MEAN_ANOMALY":"164.9112","LAUNCH_DATE":"2021-01-24","FILE":"3111252","ARG_OF_PERICENTER":"195.2046","CENTER_NAME":"EARTH","RA_OF_ASC_NODE":"312.0049","PERIOD":"95.092","ELEMENT_SET_NO":"999","INCLINATION":"97.4886","REF_FRAME":"TEME","TIME_SYSTEM":"UTC","EPOCH":"2021-09-08T14:51:05.961600","OBJECT_NAME":"STARLINK-2206","EPHEMERIS_TYPE":"0","BSTAR":"-0.00000619820000","TLE_LINE1":"1 47420U 21006H   21251.61881900 -.00000178  00000-0 -61982-5 0  9999","RCS_SIZE":"LARGE"},{"EPHEMERIS_TYPE":"0","BSTAR":"0.00009871300000","TLE_LINE1":"1 47421U 21006J   21251.68535303  .00001743  00000-0  98713-4 0  9998","RCS_SIZE":"LARGE","TIME_SYSTEM":"UTC","OBJECT_NAME":"STARLINK-2207","EPOCH":"2021-09-08T16:26:54.501792","ELEMENT_SET_NO":"999","PERIOD":"95.092","INCLINATION":"97.4888","REF_FRAME":"TEME","ARG_OF_PERICENTER":"197.9597","FILE":"3111252","CENTER_NAME":"EARTH","RA_OF_ASC_NODE":"312.0703","MEAN_MOTION":"15.14322579","MEAN_ANOMALY":"162.1557","LAUNCH_DATE":"2021-01-24","COUNTRY_CODE":"US","MEAN_ELEMENT_THEORY":"SGP4","DECAY_DATE":null,"NORAD_CAT_ID":"47421","APOAPSIS":"524.561","OBJECT_ID":"2021-006J","ECCENTRICITY":"0.00022070","GP_ID":"184348763","MEAN_MOTION_DDOT":"0.0000000000000","TLE_LINE2":"2 47421  97.4888 312.0703 0002207 197.9597 162.1557 15.14322579 34674","MEAN_MOTION_DOT":"0.00001743","SITE":"AFETR","OBJECT_TYPE":"PAYLOAD","PERIAPSIS":"521.515","SEMIMAJOR_AXIS":"6901.173","CLASSIFICATION_TYPE":"U","REV_AT_EPOCH":"3467"},{"GP_ID":"184319711","ECCENTRICITY":"0.00022910","OBJECT_ID":"2021-006K","NORAD_CAT_ID":"47422","APOAPSIS":"524.603","DECAY_DATE":null,"MEAN_ELEMENT_THEORY":"SGP4","COUNTRY_CODE":"US","LAUNCH_DATE":"2021-01-24","MEAN_ANOMALY":"164.2274","MEAN_MOTION":"15.14327771","REV_AT_EPOCH":"3463","CLASSIFICATION_TYPE":"U","SEMIMAJOR_AXIS":"6901.157","PERIAPSIS":"521.441","OBJECT_TYPE":"PAYLOAD","MEAN_MOTION_DOT":"0.00001588","TLE_LINE2":"2 47422  97.4893 311.8239 0002291 195.8886 164.2274 15.14327771 34637","SITE":"AFETR","MEAN_MOTION_DDOT":"0.0000000000000","EPOCH":"2021-09-08T10:03:39.110688","OBJECT_NAME":"STARLINK-2208","TIME_SYSTEM":"UTC","RCS_SIZE":"LARGE","TLE_LINE1":"1 47422U 21006K   21251.41920267  .00001588  00000-0  90266-4 0  9999","BSTAR":"0.00009026600000","EPHEMERIS_TYPE":"0","RA_OF_ASC_NODE":"311.8239","CENTER_NAME":"EARTH","FILE":"3110975","ARG_OF_PERICENTER":"195.8886","REF_FRAME":"TEME","INCLINATION":"97.4893","PERIOD":"95.092","ELEMENT_SET_NO":"999"},{"OBJECT_NAME":"STARLINK-1782","EPOCH":"2021-09-08T19:12:22.075200","TIME_SYSTEM":"UTC","EPHEMERIS_TYPE":"0","BSTAR":"-0.00004065500000","TLE_LINE1":"1 47548U 21009A   21251.80025550 -.00000887  00000-0 -40655-4 0  9995","RCS_SIZE":"LARGE","ARG_OF_PERICENTER":"52.8866","FILE":"3111252","RA_OF_ASC_NODE":"186.8339","CENTER_NAME":"EARTH","INCLINATION":"53.0556","ELEMENT_SET_NO":"999","PERIOD":"95.592","REF_FRAME":"TEME","DECAY_DATE":null,"MEAN_ELEMENT_THEORY":"SGP4","NORAD_CAT_ID":"47548","APOAPSIS":"548.331","COUNTRY_CODE":"US","GP_ID":"184349029","ECCENTRICITY":"0.00015950","OBJECT_ID":"2021-009A","MEAN_ANOMALY":"307.2269","MEAN_MOTION":"15.06395841","LAUNCH_DATE":"2021-02-04","SEMIMAJOR_AXIS":"6925.361","CLASSIFICATION_TYPE":"U","REV_AT_EPOCH":"3331","MEAN_MOTION_DDOT":"0.0000000000000","TLE_LINE2":"2 47548  53.0556 186.8339 0001595  52.8866 307.2269 15.06395841 33318","SITE":"AFETR","MEAN_MOTION_DOT":"-0.00000887","PERIAPSIS":"546.122","OBJECT_TYPE":"PAYLOAD"},{"MEAN_MOTION":"15.06393385","MEAN_ANOMALY":"317.7311","LAUNCH_DATE":"2021-02-04","COUNTRY_CODE":"US","DECAY_DATE":null,"MEAN_ELEMENT_THEORY":"SGP4","NORAD_CAT_ID":"47549","APOAPSIS":"548.347","OBJECT_ID":"2021-009B","ECCENTRICITY":"0.00016070","GP_ID":"184348779","MEAN_MOTION_DDOT":"0.0000000000000","SITE":"AFETR","TLE_LINE2":"2 47549  53.0547 186.5470 0001607  42.3802 317.7311 15.06393385 33326","MEAN_MOTION_DOT":"0.00000009","OBJECT_TYPE":"PAYLOAD","PERIAPSIS":"546.121","SEMIMAJOR_AXIS":"6925.369","CLASSIFICATION_TYPE":"U","REV_AT_EPOCH":"3332","EPHEMERIS_TYPE":"0","BSTAR":"0.00001952300000","TLE_LINE1":"1 47549U 21009B   21251.86291608  .00000009  00000-0  19523-4 0  9995","RCS_SIZE":"LARGE","TIME_SYSTEM":"UTC","OBJECT_NAME":"STARLINK-1806","EPOCH":"2021-09-08T20:42:35.949312","ELEMENT_SET_NO":"999","PERIOD":"95.593","INCLINATION":"53.0547","REF_FRAME":"TEME","ARG_OF_PERICENTER":"42.3802","FILE":"3111252","CENTER_NAME":"EARTH","RA_OF_ASC_NODE":"186.5470"},{"OBJECT_TYPE":"PAYLOAD","PERIAPSIS":"546.124","TLE_LINE2":"2 47550  53.0561 176.7853 0001561  70.3926 289.7232 15.06402634 33459","SITE":"AFETR","MEAN_MOTION_DOT":"0.00001262","MEAN_MOTION_DDOT":"0.0000000000000","REV_AT_EPOCH":"3345","CLASSIFICATION_TYPE":"U","SEMIMAJOR_AXIS":"6925.340","LAUNCH_DATE":"2021-02-04","MEAN_MOTION":"15.06402634","MEAN_ANOMALY":"289.7232","OBJECT_ID":"2021-009C","GP_ID":"184348028","ECCENTRICITY":"0.00015610","COUNTRY_CODE":"US","NORAD_CAT_ID":"47550","APOAPSIS":"548.287","MEAN_ELEMENT_THEORY":"SGP4","DECAY_DATE":null,"REF_FRAME":"TEME","PERIOD":"95.592","ELEMENT_SET_NO":"999","INCLINATION":"53.0561","RA_OF_ASC_NODE":"176.7853","CENTER_NAME":"EARTH","FILE":"3111252","ARG_OF_PERICENTER":"70.3926","RCS_SIZE":"LARGE","TLE_LINE1":"1 47550U 21009C   21251.80854216  .00001262  00000-0  10358-3 0  9999","BSTAR":"0.00010358000000","EPHEMERIS_TYPE":"0","TIME_SYSTEM":"UTC","EPOCH":"2021-09-08T19:24:18.042624","OBJECT_NAME":"STARLINK-1909"},{"OBJECT_NAME":"STARLINK-1938","EPOCH":"2021-09-08T06:32:01.809024","TIME_SYSTEM":"UTC","BSTAR":"0.00000830770000","TLE_LINE1":"1 47551U 21009D   21251.27224316 -.00000158  00000-0  83077-5 0  9997","RCS_SIZE":"LARGE","EPHEMERIS_TYPE":"0","RA_OF_ASC_NODE":"199.1947","CENTER_NAME":"EARTH","ARG_OF_PERICENTER":"39.9948","FILE":"3110975","REF_FRAME":"TEME","INCLINATION":"53.0549","ELEMENT_SET_NO":"999","PERIOD":"95.592","GP_ID":"184318475","ECCENTRICITY":"0.00015840","OBJECT_ID":"2021-009D","DECAY_DATE":null,"MEAN_ELEMENT_THEORY":"SGP4","APOAPSIS":"548.312","NORAD_CAT_ID":"47551","COUNTRY_CODE":"US","LAUNCH_DATE":"2021-02-04","MEAN_ANOMALY":"320.1158","MEAN_MOTION":"15.06399624","SEMIMAJOR_AXIS":"6925.350","CLASSIFICATION_TYPE":"U","REV_AT_EPOCH":"3309","PERIAPSIS":"546.118","OBJECT_TYPE":"PAYLOAD","MEAN_MOTION_DDOT":"0.0000000000000","SITE":"AFETR","TLE_LINE2":"2 47551  53.0549 199.1947 0001584  39.9948 320.1158 15.06399624 33090","MEAN_MOTION_DOT":"-0.00000158"}];
